NORAD_CAT_ID,OBJECT_NAME,OBJECT_TYPE,EPOCH,MEAN_MOTION,ECCENTRICITY,INCLINATION,RA_OF_ASC_NODE,ARG_OF_PERICENTER,MEAN_ANOMALY,BSTAR,MEAN_MOTION_DOT,MEAN_MOTION_DDOT,TLE_LINE0,TLE_LINE1,TLE_LINE2,SEMIMAJOR_AXIS,PERIOD,APOGEE,PERIGEE,DECAYED
49179.0,STARLINK-3043,PAYLOAD,2022-04-05 14:00:01,15.57900516,0.0003295,69.9997,275.0702,262.6367,309.9465,-0.0085749,-0.0059738,0.0,0 STARLINK-3043,1 49179U 21082BB  22095.58335648 -.00597380  00000-0 -85749-2 0  9992,2 49179  69.9997 275.0702 0003295 262.6367 309.9465 15.57900516  3665,6771.871,92.432,395.968,391.505,0.0
49179.0,STARLINK-3043,PAYLOAD,2022-04-05 22:00:00,15.57475981,0.0003426,70.0,274.1497,262.0654,19.1215,-0.010541,-0.00712516,0.0,0 STARLINK-3043,1 49179U 21082BB  22095.91667824 -.00712516  00000-0 -10541-1 0  9990,2 49179  70.0000 274.1497 0003426 262.0654  19.1215 15.57475981 32076,6773.102,92.457,397.287,392.646,0.0
49179.0,STARLINK-3043,PAYLOAD,2022-04-06 14:00:01,15.56456641,0.0003539,70.0003,272.3105,272.0775,144.6977,-0.011028,-0.00717152,0.0,0 STARLINK-3043,1 49179U 21082BB  22096.58334491 -.00717152  00000-0 -11028-1 0  9997,2 49179  70.0003 272.3105 0003539 272.0775 144.6977 15.56456641  3703,6776.059,92.518,400.322,395.526,0.0
49179.0,STARLINK-3043,PAYLOAD,2022-04-06 22:00:00,15.55939849,0.0003461,70.0,271.3916,265.0108,218.6418,-0.011081,-0.00707695,0.0,0 STARLINK-3043,1 49179U 21082BB  22096.91667824 -.00707695  00000-0 -11081-1 0  9993,2 49179  70.0000 271.3916 0003461 265.0108 218.6418 15.55939849 32232,6777.559,92.549,401.77,397.078,0.0
49179.0,STARLINK-3043,PAYLOAD,2022-04-07 14:00:01,15.54922713,0.0003354,70.0003,269.5563,270.2814,345.2816,-0.011629,-0.00714629,0.0,0 STARLINK-3043,1 49179U 21082BB  22097.58334491 -.00714629  00000-0 -11629-1 0  9991,2 49179  70.0003 269.5563 0003354 270.2814 345.2816 15.54922713  3716,6780.514,92.609,404.653,400.105,0.0
49179.0,STARLINK-3043,PAYLOAD,2022-04-07 20:00:01,15.54538307,0.0003293,70.0001,268.8688,265.8125,308.5861,-0.011766,-0.00713026,0.0,0 STARLINK-3043,1 49179U 21082BB  22097.83334491 -.00713026  00000-0 -11766-1 0  9991,2 49179  70.0001 268.8688 0003293 265.8125 308.5861 15.54538307 32379,6781.632,92.632,405.73,401.264,0.0
49179.0,STARLINK-3043,PAYLOAD,2022-04-07 22:00:00,15.54410018,0.0003488,70.0001,268.6397,264.328,56.2726,-0.011799,-0.00711825,0.0,0 STARLINK-3043,1 49179U 21082BB  22097.91667824 -.00711825  00000-0 -11799-1 0  9990,2 49179  70.0001 268.6397 0003488 264.3280  56.2726 15.54410018  3672,6782.005,92.64,406.236,401.505,0.0
49179.0,STARLINK-3043,PAYLOAD,2022-04-08 14:00:03,15.53390426,0.0003516,70.0001,266.8087,275.4799,173.4851,-0.012334,-0.0071647,0.0,0 STARLINK-3043,1 49179U 21082BB  22098.58336806 -.00716470  00000-0 -12334-1 0  9994,2 49179  70.0001 266.8087 0003516 275.4799 173.4851 15.53390426  3702,6784.973000000001,92.7,409.223,404.452,0.0
49179.0,STARLINK-3043,PAYLOAD,2022-04-08 22:00:00,15.5287367,0.0003413,69.9998,265.8942,278.159,233.8772,-0.012381,-0.00706671,0.0,0 STARLINK-3043,1 49179U 21082BB  22098.91667824 -.00706671  00000-0 -12381-1 0  9992,2 49179  69.9998 265.8942 0003413 278.1590 233.8772 15.52873670 32541,6786.478,92.731,410.659,406.026,0.0
49179.0,STARLINK-3043,PAYLOAD,2022-04-09 14:00:01,15.5301989,0.0003354,69.9986,264.0707,267.563,10.5137,-0.00033875,-0.00021331,0.0,0 STARLINK-3043,1 49179U 21082BB  22099.58334491 -.00021331  00000-0 -33875-3 0  9993,2 49179  69.9986 264.0707 0003354 267.5630  10.5137 15.53019890  3707,6786.052,92.723,410.193,405.641,0.0
49179.0,STARLINK-3043,PAYLOAD,2022-04-09 16:00:00,15.53013376,0.0003359,69.9986,263.8423,269.445,114.3986,-0.00020848,-0.00013203,0.0,0 STARLINK-3043,1 49179U 21082BB  22099.66667824 -.00013203  00000-0 -20848-3 0  9996,2 49179  69.9986 263.8423 0003359 269.4450 114.3986 15.53013376 32660,6786.071,92.723,410.215,405.656,0.0
49179.0,STARLINK-3043,PAYLOAD,2022-04-09 22:00:00,15.53003454,0.000342,69.9981,263.1568,273.7598,67.384,0.00086609,0.00054423,0.0,0 STARLINK-3043,1 49179U 21082BB  22099.91667824  .00054423  00000-0  86609-3 0  9998,2 49179  69.9981 263.1568 0003420 273.7598  67.3840 15.53003454  3703,6786.1,92.724,410.285,405.644,0.0
49179.0,STARLINK-3043,PAYLOAD,2022-04-10 06:00:02,15.53003462,0.0003417,69.998,262.2428,267.1517,137.1418,0.0013045,0.00082347,0.0,0 STARLINK-3043,1 49179U 21082BB  22100.25002315  .00082347  00000-0  13045-2 0  9995,2 49179  69.9980 262.2428 0003417 267.1517 137.1418 15.53003462 32754,6786.1,92.724,410.283,405.646,0.0
49179.0,STARLINK-3043,PAYLOAD,2022-04-10 14:00:01,15.53079564,0.0003455,69.9982,261.3288,268.2062,199.0935,-0.00033372,-0.00021063,0.0,0 STARLINK-3043,1 49179U 21082BB  22100.58334491 -.00021063  00000-0 -33372-3 0  9990,2 49179  69.9982 261.3288 0003455 268.2062 199.0935 15.53079564  3697,6785.878000000002,92.719,410.087,405.398,0.0
49179.0,STARLINK-3043,PAYLOAD,2022-04-10 22:00:00,15.53007279,0.0003324,69.9998,260.4123,266.8124,263.576,7.3408e-05,4.429999999999999e-05,0.0,0 STARLINK-3043,1 49179U 21082BB  22100.91667824  .00004430  00000-0  73408-4 0  9998,2 49179  69.9998 260.4123 0003324 266.8124 263.5760 15.53007279 32857,6786.0880000000025,92.723,410.209,405.698,0.0
49179.0,STARLINK-3043,PAYLOAD,2022-04-11 06:00:00,15.5301579,0.0003066,69.9979,259.5011,268.1272,325.4562,0.0007243999999999,0.00045459,0.0,0 STARLINK-3043,1 49179U 21082BB  22101.25001157  .00045459  00000-0  72440-3 0  9997,2 49179  69.9979 259.5011 0003066 268.1272 325.4562 15.53015790 32904,6786.064,92.723,410.009,405.848,0.0
49179.0,STARLINK-3043,PAYLOAD,2022-04-11 14:00:01,15.53039126,0.0002993,69.9986,258.5866,270.0992,26.562,-0.001046,-0.00065198,0.0,0 STARLINK-3043,1 49179U 21082BB  22101.58334491 -.00065198  00000-0 -10460-2 0  9990,2 49179  69.9986 258.5866 0002993 270.0992  26.5620 15.53039126 32956,6785.996,92.721,409.892,405.83,0.0
49179.0,STARLINK-3043,PAYLOAD,2022-04-11 22:00:00,15.5315626,0.0003208,69.9986,257.6716,274.7539,84.9392,-0.0091759,-0.00540253,0.0,0 STARLINK-3043,1 49179U 21082BB  22101.91667824 -.00540253  00000-0 -91759-2 0  9996,2 49179  69.9986 257.6716 0003208 274.7539  84.9392 15.53156260 33019,6785.654,92.714,409.696,405.343,0.0
49179.0,STARLINK-3043,PAYLOAD,2022-04-12 06:00:02,15.52871118,0.0003373,69.9998,256.7564,273.3781,149.3505,-0.0092117,-0.00537028,0.0,0 STARLINK-3043,1 49179U 21082BB  22102.25002315 -.00537028  00000-0 -92117-2 0  9997,2 49179  69.9998 256.7564 0003373 273.3781 149.3505 15.52871118 33062,6786.485,92.731,410.639,406.061,0.0
49179.0,STARLINK-3043,PAYLOAD,2022-04-12 14:00:01,15.52485603,0.000347,70.0002,255.8419,280.0496,205.2828,-0.012727,-0.00715498,0.0,0 STARLINK-3043,1 49179U 21082BB  22102.58334491 -.00715498  00000-0 -12727-1 0  9993,2 49179  70.0002 255.8419 0003470 280.0496 205.2828 15.52485603 33112,6787.609,92.754,411.829,407.11800000000005,0.0
49179.0,STARLINK-3043,PAYLOAD,2022-04-12 22:00:00,15.51971432,0.0003315,69.9998,254.9283,268.5617,278.8859,-0.01285,-0.0070962,0.0,0 STARLINK-3043,1 49179U 21082BB  22102.91667824 -.00709620  00000-0 -12850-1 0  9996,2 49179  69.9998 254.9283 0003315 268.5617 278.8859 15.51971432  3684,6789.108,92.785,413.223,408.722,0.0
49179.0,STARLINK-3043,PAYLOAD,2022-04-13 14:00:03,15.50871745,0.0003407,69.9997,253.1039,265.5825,44.4245,-0.011275,-0.00606442,0.0,0 STARLINK-3043,1 49179U 21082BB  22103.58336806 -.00606442  00000-0 -11275-1 0  9991,2 49179  69.9997 253.1039 0003407 265.5825  44.4245 15.50871745 33261,6792.316999999999,92.851,416.496,411.867,0.0
49179.0,STARLINK-3043,PAYLOAD,2022-04-13 22:00:00,15.50440632,0.0003526999999999,69.9997,252.1918,267.4748,102.6378,-0.013622,-0.00711959,0.0,0 STARLINK-3043,1 49179U 21082BB  22103.91667824 -.00711959  00000-0 -13622-1 0  9993,2 49179  69.9997 252.1918 0003527 267.4748 102.6378 15.50440632 33322,6793.576,92.877,417.837,413.045,0.0
49179.0,STARLINK-3043,PAYLOAD,2022-04-14 14:00:01,15.49418953,0.0003469,70.0,250.3713,279.7539,209.0726,-0.01417,-0.00723106,0.0,0 STARLINK-3043,1 49179U 21082BB  22104.58334491 -.00723106  00000-0 -14170-1 0  9994,2 49179  70.0000 250.3713 0003469 279.7539 209.0726 15.49418953  3697,6796.562,92.938,420.784,416.069,0.0
49179.0,STARLINK-3043,PAYLOAD,2022-04-14 22:00:00,15.48907072,0.0003315,69.9995,249.4617,272.5427,274.7214,-0.014382,-0.00720935,0.0,0 STARLINK-3043,1 49179U 21082BB  22104.91667824 -.00720935  00000-0 -14382-1 0  9992,2 49179  69.9995 249.4617 0003315 272.5427 274.7214 15.48907072 33470,6798.059,92.969,422.17800000000005,417.67,0.0
49179.0,STARLINK-3043,PAYLOAD,2022-04-15 11:08:49,15.48614046,0.0005268,69.9987,247.9788,288.9856,71.0758,-0.0072971,-0.00373365,0.0,0 STARLINK-3043,1 49179U 21082BB  22105.46446555 -.00373365  00000-0 -72971-2 0  9999,2 49179  69.9987 247.9788 0005268 288.9856  71.0758 15.48614046 33566,6798.917,92.986,424.36300000000006,417.2,0.0
49179.0,STARLINK-3043,PAYLOAD,2022-04-15 22:00:00,15.47374788,0.0003486,69.9998,246.7379,269.2443,89.6551,-0.015173,-0.00720921,0.0,0 STARLINK-3043,1 49179U 21082BB  22105.91667824 -.00720921  00000-0 -15173-1 0  9997,2 49179  69.9998 246.7379 0003486 269.2443  89.6551 15.47374788 33634,6802.545999999999,93.061,426.783,422.04,0.0
49179.0,STARLINK-3043,PAYLOAD,2022-04-16 14:00:01,15.463525199999998,0.0003513,69.9999,244.9257,282.0949,188.1651,-0.0157479999999999,-0.0072209999999999,0.0,0 STARLINK-3043,1 49179U 21082BB  22106.58334491 -.00722100  00000-0 -15748-1 0  9991,2 49179  69.9999 244.9257 0003513 282.0949 188.1651 15.46352520  3693,6805.544,93.122,429.8,425.018,0.0
49179.0,STARLINK-3043,PAYLOAD,2022-04-16 22:00:01,15.45842399,0.0003311,69.9996,244.0203,269.1784,255.9063,-0.016043,-0.00722707,0.0,0 STARLINK-3043,1 49179U 21082BB  22106.91668981 -.00722707  00000-0 -16043-1 0  9994,2 49179  69.9996 244.0203 0003311 269.1784 255.9063 15.45842399 33781,6807.041,93.153,431.16,426.652,0.0
